{
"type": "FeatureCollection",
"name": "vyborg_cafes",
"crs": { "type": "name", "properties": { "name": "urn:ogc:def:crs:OGC:1.3:CRS84" } },
"features": [
{ "type": "Feature", "properties": { "element": "node", "id": 1355645018, "amenity": "cafe", "name": "Минутка", "phone": "+7-81378-26724", "opening_hours": null, "cuisine": null, "level": null }, "geometry": { "type": "Point", "coordinates": [ 28.761616, 60.7076928 ] } },
{ "type": "Feature", "properties": { "element": "node", "id": 1483632393, "amenity": "cafe", "name": "Чердак", "phone": "+7 81378 32809", "opening_hours": "09:00-24:00", "cuisine": null, "level": null }, "geometry": { "type": "Point", "coordinates": [ 28.757941, 60.7113338 ] } },
{ "type": "Feature", "properties": { "element": "node", "id": 1521384432, "amenity": "cafe", "name": "Назаре", "phone": null, "opening_hours": "Mo-Th 11:00-23:00; Fr-Sa 11:00-01:00; Su 11:00-21:00", "cuisine": "kebab", "level": null }, "geometry": { "type": "Point", "coordinates": [ 28.7494777, 60.7122432 ] } },
{ "type": "Feature", "properties": { "element": "node", "id": 1614021108, "amenity": "cafe", "name": "Чебуречная", "phone": null, "opening_hours": "Mo-Su 09:00-19:00", "cuisine": null, "level": null }, "geometry": { "type": "Point", "coordinates": [ 28.7556807, 60.71412 ] } },
{ "type": "Feature", "properties": { "element": "node", "id": 1731261322, "amenity": "cafe", "name": "New Бриг", "phone": "+7-81378-26330", "opening_hours": "10:00-22:00", "cuisine": null, "level": null }, "geometry": { "type": "Point", "coordinates": [ 28.751184, 60.7099217 ] } },
{ "type": "Feature", "properties": { "element": "node", "id": 1740678980, "amenity": "cafe", "name": "Четыре", "phone": null, "opening_hours": "08:00-22:00", "cuisine": null, "level": null }, "geometry": { "type": "Point", "coordinates": [ 28.7548136, 60.709799 ] } },
{ "type": "Feature", "properties": { "element": "node", "id": 1741098555, "amenity": "cafe", "name": "Кати", "phone": null, "opening_hours": "09:00-20:00", "cuisine": "cake", "level": null }, "geometry": { "type": "Point", "coordinates": [ 28.7583544, 60.7108603 ] } },
{ "type": "Feature", "properties": { "element": "node", "id": 1744692336, "amenity": "cafe", "name": "Кофе Тайм", "phone": null, "opening_hours": "Mo-Fr 08:00-20:00; Sa 09:00-20:00", "cuisine": null, "level": null }, "geometry": { "type": "Point", "coordinates": [ 28.7560713, 60.7083272 ] } },
{ "type": "Feature", "properties": { "element": "node", "id": 1963039383, "amenity": "cafe", "name": "Камелот", "phone": null, "opening_hours": "Mo-Su 12:00-23:00", "cuisine": null, "level": null }, "geometry": { "type": "Point", "coordinates": [ 28.7355599, 60.7123999 ] } },
{ "type": "Feature", "properties": { "element": "node", "id": 1963039389, "amenity": "cafe", "name": "Сова", "phone": null, "opening_hours": "10:00-24:00", "cuisine": "russian", "level": null }, "geometry": { "type": "Point", "coordinates": [ 28.7359616, 60.7123389 ] } },
{ "type": "Feature", "properties": { "element": "node", "id": 1963039404, "amenity": "cafe", "name": "Europe", "phone": null, "opening_hours": null, "cuisine": null, "level": null }, "geometry": { "type": "Point", "coordinates": [ 28.7359347, 60.7126279 ] } },
{ "type": "Feature", "properties": { "element": "node", "id": 2088154175, "amenity": "cafe", "name": "Славянская трапеза", "phone": "+7 81378 55267", "opening_hours": "12:00-24:00", "cuisine": null, "level": null }, "geometry": { "type": "Point", "coordinates": [ 28.729487, 60.7137443 ] } },
{ "type": "Feature", "properties": { "element": "node", "id": 2092461521, "amenity": "cafe", "name": "Игорика", "phone": null, "opening_hours": null, "cuisine": null, "level": null }, "geometry": { "type": "Point", "coordinates": [ 28.7365187, 60.714333 ] } },
{ "type": "Feature", "properties": { "element": "node", "id": 2092461557, "amenity": "cafe", "name": "Респект", "phone": null, "opening_hours": "Mo-Fr 11:00-20:00; Sa 11:00-23:00; Su 11:00-20:00", "cuisine": null, "level": null }, "geometry": { "type": "Point", "coordinates": [ 28.7316807, 60.7140729 ] } },
{ "type": "Feature", "properties": { "element": "node", "id": 2092461560, "amenity": "cafe", "name": "Mr.Panda", "phone": "+7 931 3324799; +7 812 4077121", "opening_hours": "10:00-24:00", "cuisine": "sushi", "level": null }, "geometry": { "type": "Point", "coordinates": [ 28.7370582, 60.7134337 ] } },
{ "type": "Feature", "properties": { "element": "node", "id": 2092653816, "amenity": "cafe", "name": "Ярослав", "phone": null, "opening_hours": "24/7", "cuisine": null, "level": null }, "geometry": { "type": "Point", "coordinates": [ 28.7500033, 60.7154547 ] } },
{ "type": "Feature", "properties": { "element": "node", "id": 2132215914, "amenity": "cafe", "name": "Поляна", "phone": "+7-81378-33951", "opening_hours": "Mo-Fr 09:00-19:00; Sa 11:00-18:00", "cuisine": null, "level": "2" }, "geometry": { "type": "Point", "coordinates": [ 28.766805, 60.705708 ] } },
{ "type": "Feature", "properties": { "element": "node", "id": 2134107907, "amenity": "cafe", "name": "Сен Жермен", "phone": "+7-81378-22260", "opening_hours": "Mo-Th 08:00-01:00; Fr 08:00-04:00; Sa-Su 12:00-04:00", "cuisine": null, "level": null }, "geometry": { "type": "Point", "coordinates": [ 28.7521721, 60.7092207 ] } },
{ "type": "Feature", "properties": { "element": "node", "id": 2277225613, "amenity": "cafe", "name": "Столовая", "phone": null, "opening_hours": null, "cuisine": null, "level": null }, "geometry": { "type": "Point", "coordinates": [ 28.7618706, 60.7128972 ] } },
{ "type": "Feature", "properties": { "element": "node", "id": 2277316016, "amenity": "cafe", "name": null, "phone": null, "opening_hours": null, "cuisine": null, "level": null }, "geometry": { "type": "Point", "coordinates": [ 28.7673362, 60.7252322 ] } },
{ "type": "Feature", "properties": { "element": "node", "id": 2400914234, "amenity": "cafe", "name": "Чайная ложка", "phone": null, "opening_hours": "Mo-Th 10:00-21:00; Fr-Sa 09:00-22:00; Su 10:00-21:00", "cuisine": null, "level": null }, "geometry": { "type": "Point", "coordinates": [ 28.7152619, 60.7197487 ] } },
{ "type": "Feature", "properties": { "element": "node", "id": 2417490653, "amenity": "cafe", "name": "Столовая № 1", "phone": null, "opening_hours": "09:00-19:00", "cuisine": null, "level": null }, "geometry": { "type": "Point", "coordinates": [ 28.7372192, 60.7137041 ] } },
{ "type": "Feature", "properties": { "element": "node", "id": 2634541097, "amenity": "cafe", "name": "Пельмешка", "phone": null, "opening_hours": "09:00-21:00", "cuisine": null, "level": null }, "geometry": { "type": "Point", "coordinates": [ 28.7657949, 60.7108127 ] } },
{ "type": "Feature", "properties": { "element": "node", "id": 2640264846, "amenity": "cafe", "name": "Погребок", "phone": "+7-81378-23153", "opening_hours": "00:00-02:00; 12:00-24:00", "cuisine": null, "level": null }, "geometry": { "type": "Point", "coordinates": [ 28.7483423, 60.7157715 ] } },
{ "type": "Feature", "properties": { "element": "node", "id": 3049625183, "amenity": "cafe", "name": "Столовая №1", "phone": null, "opening_hours": "09:00-20:00", "cuisine": null, "level": null }, "geometry": { "type": "Point", "coordinates": [ 28.7557345, 60.7063938 ] } },
{ "type": "Feature", "properties": { "element": "node", "id": 3191463093, "amenity": "cafe", "name": "Черёмушки", "phone": null, "opening_hours": null, "cuisine": null, "level": null }, "geometry": { "type": "Point", "coordinates": [ 28.768942, 60.7070312 ] } },
{ "type": "Feature", "properties": { "element": "node", "id": 3324292696, "amenity": "cafe", "name": "Кафе Чача", "phone": "+7‒931‒228‒44‒24", "opening_hours": "Mo-Th 12:00-23:00, Fr,Sa 12:00-03:00, Su 12:00-23:00", "cuisine": null, "level": null }, "geometry": { "type": "Point", "coordinates": [ 28.7321333, 60.7175255 ] } },
{ "type": "Feature", "properties": { "element": "node", "id": 3528333919, "amenity": "cafe", "name": "Фараон", "phone": null, "opening_hours": null, "cuisine": null, "level": null }, "geometry": { "type": "Point", "coordinates": [ 28.7669135, 60.7064768 ] } },
{ "type": "Feature", "properties": { "element": "node", "id": 3790744258, "amenity": "cafe", "name": "Йорма", "phone": null, "opening_hours": "24/7", "cuisine": null, "level": null }, "geometry": { "type": "Point", "coordinates": [ 28.749619, 60.7151941 ] } },
{ "type": "Feature", "properties": { "element": "node", "id": 3797773057, "amenity": "cafe", "name": "Буфет", "phone": null, "opening_hours": "Mo-Fr 09:00-17:00", "cuisine": null, "level": "2" }, "geometry": { "type": "Point", "coordinates": [ 28.7563026, 60.7135636 ] } },
{ "type": "Feature", "properties": { "element": "node", "id": 3832323294, "amenity": "cafe", "name": "Пар-бар", "phone": "+7 921 8571865", "opening_hours": "Mo-Su 12:00-23:00", "cuisine": null, "level": null }, "geometry": { "type": "Point", "coordinates": [ 28.7551261, 60.7126336 ] } },
{ "type": "Feature", "properties": { "element": "node", "id": 4066412418, "amenity": "cafe", "name": "Малета", "phone": null, "opening_hours": null, "cuisine": null, "level": null }, "geometry": { "type": "Point", "coordinates": [ 28.7486631, 60.6997463 ] } },
{ "type": "Feature", "properties": { "element": "node", "id": 4146760027, "amenity": "cafe", "name": "Ника", "phone": null, "opening_hours": "Mo-Fr 08:00-23:00; Sa-Su 09:00-23:00", "cuisine": null, "level": null }, "geometry": { "type": "Point", "coordinates": [ 28.7321801, 60.713919 ] } },
{ "type": "Feature", "properties": { "element": "node", "id": 4345656590, "amenity": "cafe", "name": "Вкусная затея", "phone": null, "opening_hours": "Mo-Su 09:00-20:00", "cuisine": null, "level": null }, "geometry": { "type": "Point", "coordinates": [ 28.7705939, 60.699109 ] } },
{ "type": "Feature", "properties": { "element": "node", "id": 4351091191, "amenity": "cafe", "name": "Домино", "phone": null, "opening_hours": null, "cuisine": null, "level": null }, "geometry": { "type": "Point", "coordinates": [ 28.7664691, 60.704624 ] } },
{ "type": "Feature", "properties": { "element": "node", "id": 4476795190, "amenity": "cafe", "name": "Гости", "phone": "+7 981 1611698", "opening_hours": null, "cuisine": null, "level": null }, "geometry": { "type": "Point", "coordinates": [ 28.7538427, 60.7095056 ] } },
{ "type": "Feature", "properties": { "element": "node", "id": 4738763127, "amenity": "cafe", "name": "Маки", "phone": null, "opening_hours": "Mo-Fr 09:00-18:00; Sa-Su off", "cuisine": null, "level": null }, "geometry": { "type": "Point", "coordinates": [ 28.7462123, 60.7110738 ] } },
{ "type": "Feature", "properties": { "element": "node", "id": 5239563429, "amenity": "cafe", "name": "Cup Coffee", "phone": null, "opening_hours": "10:00-20:00", "cuisine": null, "level": null }, "geometry": { "type": "Point", "coordinates": [ 28.7329916, 60.7145252 ] } },
{ "type": "Feature", "properties": { "element": "node", "id": 5805688250, "amenity": "cafe", "name": "Пышечка", "phone": null, "opening_hours": "Mo-Su 09:00-20:00", "cuisine": null, "level": null }, "geometry": { "type": "Point", "coordinates": [ 28.7601212, 60.7107255 ] } },
{ "type": "Feature", "properties": { "element": "node", "id": 6489960285, "amenity": "cafe", "name": "Хэллоу, Брэд!", "phone": "+79522443334", "opening_hours": "Mo-Su 09:00-22:00", "cuisine": "cake;ice_cream;breakfast;coffee_shop", "level": null }, "geometry": { "type": "Point", "coordinates": [ 28.7309913, 60.7138016 ] } },
{ "type": "Feature", "properties": { "element": "node", "id": 6655999021, "amenity": "cafe", "name": null, "phone": null, "opening_hours": null, "cuisine": "coffee_shop", "level": null }, "geometry": { "type": "Point", "coordinates": [ 28.7342946, 60.713629 ] } },
{ "type": "Feature", "properties": { "element": "node", "id": 7165681654, "amenity": "cafe", "name": "Бюро 47", "phone": null, "opening_hours": "Mo-Fr 12:00-23:00; Sa, Su 12:00-01:00", "cuisine": null, "level": null }, "geometry": { "type": "Point", "coordinates": [ 28.7353375, 60.7130511 ] } },
{ "type": "Feature", "properties": { "element": "node", "id": 7194923686, "amenity": "cafe", "name": "Столовая", "phone": null, "opening_hours": null, "cuisine": null, "level": null }, "geometry": { "type": "Point", "coordinates": [ 28.7406209, 60.6991602 ] } },
{ "type": "Feature", "properties": { "element": "node", "id": 7666579685, "amenity": "cafe", "name": "Крем", "phone": null, "opening_hours": "Mo-Su 09:00-21:00", "cuisine": null, "level": null }, "geometry": { "type": "Point", "coordinates": [ 28.7503988, 60.7116273 ] } },
{ "type": "Feature", "properties": { "element": "node", "id": 7881878186, "amenity": "cafe", "name": "Выборгский двор", "phone": null, "opening_hours": null, "cuisine": null, "level": null }, "geometry": { "type": "Point", "coordinates": [ 28.7294505, 60.7139616 ] } },
{ "type": "Feature", "properties": { "element": "node", "id": 8044076786, "amenity": "cafe", "name": "Пирожковая \"Депо\"", "phone": null, "opening_hours": "Mo-Su 09:00-18:00", "cuisine": null, "level": null }, "geometry": { "type": "Point", "coordinates": [ 28.7364156, 60.7116105 ] } },
{ "type": "Feature", "properties": { "element": "node", "id": 8679335622, "amenity": "cafe", "name": "Наше кафе", "phone": null, "opening_hours": "Su-Th 09:00-21:00; Fr,Sa 09:00-22:00", "cuisine": null, "level": null }, "geometry": { "type": "Point", "coordinates": [ 28.740125, 60.713124 ] } },
{ "type": "Feature", "properties": { "element": "node", "id": 8872074819, "amenity": "cafe", "name": "Кофе", "phone": null, "opening_hours": "Mo-Su 09:00-20:00", "cuisine": "coffee_shop", "level": null }, "geometry": { "type": "Point", "coordinates": [ 28.7257385, 60.7299479 ] } },
{ "type": "Feature", "properties": { "element": "node", "id": 9376139925, "amenity": "cafe", "name": "Буфетъ Крендель и ко", "phone": "+7 965 042-12-47", "opening_hours": "9:00-19:00", "cuisine": "coffee_shop;bakery", "level": null }, "geometry": { "type": "Point", "coordinates": [ 28.7351704, 60.7122541 ] } },
{ "type": "Feature", "properties": { "element": "node", "id": 9904696111, "amenity": "cafe", "name": "Купол", "phone": null, "opening_hours": null, "cuisine": null, "level": null }, "geometry": { "type": "Point", "coordinates": [ 28.7401009, 60.7147601 ] } },
{ "type": "Feature", "properties": { "element": "node", "id": 9914282037, "amenity": "cafe", "name": "Хлебник", "phone": null, "opening_hours": null, "cuisine": null, "level": null }, "geometry": { "type": "Point", "coordinates": [ 28.7499709, 60.7141824 ] } },
{ "type": "Feature", "properties": { "element": "node", "id": 10231822013, "amenity": "cafe", "name": "Солнечный день", "phone": "+7 (929) 179-09-09", "opening_hours": "Mo-Su 08:00-21:00", "cuisine": "russian;sandwich;pasta;salad;pancake", "level": null }, "geometry": { "type": "Point", "coordinates": [ 28.753191, 60.7076656 ] } },
{ "type": "Feature", "properties": { "element": "node", "id": 10964898205, "amenity": "cafe", "name": "August Wahl", "phone": "+7 911 7805500", "opening_hours": "10:00-22:00", "cuisine": null, "level": null }, "geometry": { "type": "Point", "coordinates": [ 28.7322404, 60.7133848 ] } },
{ "type": "Feature", "properties": { "element": "node", "id": 11011188634, "amenity": "cafe", "name": "Кафе \"На Крепостной\"", "phone": null, "opening_hours": "Mo-Su 09:00-21:00", "cuisine": null, "level": null }, "geometry": { "type": "Point", "coordinates": [ 28.7364443, 60.7116018 ] } },
{ "type": "Feature", "properties": { "element": "node", "id": 11083599633, "amenity": "cafe", "name": "Fabbrica di gusto", "phone": null, "opening_hours": "Mo-Su 10:00-21:00", "cuisine": null, "level": null }, "geometry": { "type": "Point", "coordinates": [ 28.7360448, 60.7127708 ] } },
{ "type": "Feature", "properties": { "element": "node", "id": 11225447253, "amenity": "cafe", "name": "Лавка Буттенгоффа", "phone": "+7 (952) 209-81-37", "opening_hours": "Sa-Su 08:00-22:00; Mo-Fr 08:00-21:00", "cuisine": null, "level": "1" }, "geometry": { "type": "Point", "coordinates": [ 28.7326771, 60.7130444 ] } },
{ "type": "Feature", "properties": { "element": "node", "id": 11336930442, "amenity": "cafe", "name": "U Franciscan", "phone": "+7 931 2975145", "opening_hours": "09:00-20:00", "cuisine": null, "level": null }, "geometry": { "type": "Point", "coordinates": [ 28.7346766, 60.7135655 ] } },
{ "type": "Feature", "properties": { "element": "node", "id": 12702353224, "amenity": "cafe", "name": "Baggins Coffee", "phone": null, "opening_hours": "Mo-Fr 09:00-20:00; Sa-Su 09:00-21:00", "cuisine": "coffee_shop", "level": null }, "geometry": { "type": "Point", "coordinates": [ 28.7463338, 60.711145 ] } },
{ "type": "Feature", "properties": { "element": "node", "id": 12710204531, "amenity": "cafe", "name": "Черника", "phone": null, "opening_hours": null, "cuisine": null, "level": null }, "geometry": { "type": "Point", "coordinates": [ 28.7570064, 60.7156345 ] } },
{ "type": "Feature", "properties": { "element": "node", "id": 12804107701, "amenity": "cafe", "name": "Крендель торг", "phone": null, "opening_hours": null, "cuisine": null, "level": null }, "geometry": { "type": "Point", "coordinates": [ 28.7362992, 60.7142366 ] } },
{ "type": "Feature", "properties": { "element": "node", "id": 13078830001, "amenity": "cafe", "name": "Карелла", "phone": null, "opening_hours": "Mo-Su 10:00-21:00", "cuisine": null, "level": null }, "geometry": { "type": "Point", "coordinates": [ 28.7353014, 60.712006 ] } },
{ "type": "Feature", "properties": { "element": "node", "id": 13078853501, "amenity": "cafe", "name": "Мёдбург", "phone": null, "opening_hours": "Mo-Su 12:00-19:00", "cuisine": null, "level": null }, "geometry": { "type": "Point", "coordinates": [ 28.7322611, 60.7131856 ] } },
{ "type": "Feature", "properties": { "element": "node", "id": 13457255316, "amenity": "cafe", "name": null, "phone": null, "opening_hours": null, "cuisine": "coffee_shop", "level": null }, "geometry": { "type": "Point", "coordinates": [ 28.7549992, 60.7071642 ] } },
{ "type": "Feature", "properties": { "element": "node", "id": 13546440148, "amenity": "cafe", "name": "Risole", "phone": "+ 7 911 767 57 89", "opening_hours": "Mo-Su 10:00-21:00", "cuisine": "крендели;pastry;coffee_shop", "level": null }, "geometry": { "type": "Point", "coordinates": [ 28.7326924, 60.7129081 ] } },
{ "type": "Feature", "properties": { "element": "way", "id": 86585755, "amenity": "cafe", "name": "Терраса", "phone": "+79516639999", "opening_hours": null, "cuisine": null, "level": null }, "geometry": { "type": "Polygon", "coordinates": [ [ [ 28.7233444, 60.7166825 ], [ 28.7234805, 60.716458 ], [ 28.723212, 60.7164191 ], [ 28.7230759, 60.7166436 ], [ 28.7233444, 60.7166825 ] ] ] } },
{ "type": "Feature", "properties": { "element": "way", "id": 100470032, "amenity": "cafe", "name": "Азбука вкусов", "phone": "+7-904-6149276", "opening_hours": "09:00-20:00", "cuisine": null, "level": null }, "geometry": { "type": "Polygon", "coordinates": [ [ [ 28.7625609, 60.7193235 ], [ 28.7625352, 60.7193332 ], [ 28.7624727, 60.7192937 ], [ 28.7625526, 60.7192635 ], [ 28.7626041, 60.719296 ], [ 28.762609, 60.7192991 ], [ 28.7626783, 60.7192728 ], [ 28.7628121, 60.7193573 ], [ 28.7627702, 60.7193731 ], [ 28.7627823, 60.7193808 ], [ 28.7628584, 60.7194288 ], [ 28.7627321, 60.7194766 ], [ 28.7627081, 60.7194615 ], [ 28.7626583, 60.7194804 ], [ 28.7626194, 60.7194951 ], [ 28.7625727, 60.7194656 ], [ 28.7626819, 60.7194242 ], [ 28.7626129, 60.7193807 ], [ 28.762637, 60.7193715 ], [ 28.7625609, 60.7193235 ] ] ] } },
{ "type": "Feature", "properties": { "element": "way", "id": 157879570, "amenity": "cafe", "name": "CoffeeDrive", "phone": null, "opening_hours": "09:00-22:00", "cuisine": "coffee_shop", "level": null }, "geometry": { "type": "Polygon", "coordinates": [ [ [ 28.7476655, 60.7098429 ], [ 28.7477049, 60.709868 ], [ 28.7476403, 60.7098922 ], [ 28.7476009, 60.7098671 ], [ 28.7476655, 60.7098429 ] ] ] } },
{ "type": "Feature", "properties": { "element": "way", "id": 172262526, "amenity": "cafe", "name": "Кофе с собой", "phone": null, "opening_hours": null, "cuisine": "coffee_shop", "level": null }, "geometry": { "type": "Polygon", "coordinates": [ [ [ 28.7385574, 60.7110129 ], [ 28.7385972, 60.7110379 ], [ 28.738539, 60.71106 ], [ 28.7384992, 60.711035 ], [ 28.7385574, 60.7110129 ] ] ] } },
{ "type": "Feature", "properties": { "element": "way", "id": 172922043, "amenity": "cafe", "name": "Coffee drive", "phone": null, "opening_hours": "09:00-22:00", "cuisine": "coffee_shop", "level": null }, "geometry": { "type": "Polygon", "coordinates": [ [ [ 28.7389792, 60.7131202 ], [ 28.7390186, 60.7131453 ], [ 28.738954, 60.7131695 ], [ 28.7389146, 60.7131444 ], [ 28.7389792, 60.7131202 ] ] ] } },
{ "type": "Feature", "properties": { "element": "way", "id": 256386991, "amenity": "cafe", "name": "Черника", "phone": null, "opening_hours": null, "cuisine": null, "level": null }, "geometry": { "type": "Polygon", "coordinates": [ [ [ 28.7659749, 60.6961655 ], [ 28.7661434, 60.6962222 ], [ 28.7663002, 60.6961106 ], [ 28.7661316, 60.6960539 ], [ 28.7659749, 60.6961655 ] ] ] } },
{ "type": "Feature", "properties": { "element": "way", "id": 286207324, "amenity": "cafe", "name": "Экстрим", "phone": "+7 921 0951211", "opening_hours": "Su-Th 09:00-23:00; Fr, Sa 09:00-24:00", "cuisine": null, "level": null }, "geometry": { "type": "Polygon", "coordinates": [ [ [ 28.7257528, 60.7097297 ], [ 28.725974, 60.7097909 ], [ 28.7262213, 60.7095767 ], [ 28.7252691, 60.7093136 ], [ 28.7251401, 60.7094253 ], [ 28.72536, 60.7094861 ], [ 28.7254155, 60.7094381 ], [ 28.7256682, 60.709508 ], [ 28.7255846, 60.7095804 ], [ 28.7258428, 60.7096518 ], [ 28.7257528, 60.7097297 ] ] ] } },
{ "type": "Feature", "properties": { "element": "way", "id": 405016202, "amenity": "cafe", "name": "Винегрет", "phone": null, "opening_hours": "Mo-Fr 10:00-19:00; Sa-Su 10:00-17:00", "cuisine": null, "level": null }, "geometry": { "type": "Polygon", "coordinates": [ [ [ 28.7538902, 60.6973223 ], [ 28.7537771, 60.6973405 ], [ 28.7538627, 60.6974675 ], [ 28.7539758, 60.6974492 ], [ 28.7539588, 60.697424 ], [ 28.7539399, 60.697396 ], [ 28.7538902, 60.6973223 ] ] ] } },
{ "type": "Feature", "properties": { "element": "way", "id": 439419693, "amenity": "cafe", "name": "Корс", "phone": "+7 921 8906882", "opening_hours": "11:00-23:00", "cuisine": null, "level": "0" }, "geometry": { "type": "Polygon", "coordinates": [ [ [ 28.7477503, 60.7064529 ], [ 28.7477905, 60.7064787 ], [ 28.7478398, 60.7065103 ], [ 28.7476569, 60.7065786 ], [ 28.7475674, 60.7065212 ], [ 28.7477503, 60.7064529 ] ] ] } },
{ "type": "Feature", "properties": { "element": "way", "id": 444118480, "amenity": "cafe", "name": "Застолье", "phone": "+7-81378-21605", "opening_hours": "Mo-Fr 11:00-24:00; Sa-Su 00:00-02:00,11:00-24:00", "cuisine": null, "level": "1" }, "geometry": { "type": "Polygon", "coordinates": [ [ [ 28.7713283, 60.6983754 ], [ 28.771267, 60.6983576 ], [ 28.7711805, 60.6984275 ], [ 28.7713133, 60.6984641 ], [ 28.7713465, 60.6984359 ], [ 28.7713945, 60.6983949 ], [ 28.7713524, 60.6983826 ], [ 28.7713283, 60.6983754 ] ] ] } },
{ "type": "Feature", "properties": { "element": "way", "id": 452865908, "amenity": "cafe", "name": "Крым", "phone": null, "opening_hours": "24/7", "cuisine": null, "level": "1" }, "geometry": { "type": "Polygon", "coordinates": [ [ [ 28.7502069, 60.709253 ], [ 28.750282, 60.7093012 ], [ 28.7502008, 60.7093315 ], [ 28.7501257, 60.7092832 ], [ 28.7501876, 60.7092602 ], [ 28.7502069, 60.709253 ] ] ] } },
{ "type": "Feature", "properties": { "element": "way", "id": 452865919, "amenity": "cafe", "name": "Колобок", "phone": "+7-81378-21014", "opening_hours": "10:00-21:00", "cuisine": null, "level": "1" }, "geometry": { "type": "Polygon", "coordinates": [ [ [ 28.7508407, 60.7085024 ], [ 28.7507661, 60.7084554 ], [ 28.7505176, 60.7085497 ], [ 28.7505922, 60.7085968 ], [ 28.7506262, 60.7085839 ], [ 28.7508407, 60.7085024 ] ] ] } },
{ "type": "Feature", "properties": { "element": "way", "id": 469365504, "amenity": "cafe", "name": "City", "phone": "+7 81378 35603", "opening_hours": "11:00-24:00", "cuisine": null, "level": "0" }, "geometry": { "type": "Polygon", "coordinates": [ [ [ 28.7485816, 60.7104796 ], [ 28.7487396, 60.710581 ], [ 28.7487483, 60.7105866 ], [ 28.7487471, 60.7105871 ], [ 28.7486316, 60.7106301 ], [ 28.7484649, 60.7105231 ], [ 28.7485804, 60.7104801 ], [ 28.7485816, 60.7104796 ] ] ] } },
{ "type": "Feature", "properties": { "element": "way", "id": 469365518, "amenity": "cafe", "name": "Мон Плезир", "phone": null, "opening_hours": "08:00-21:00", "cuisine": null, "level": "1" }, "geometry": { "type": "Polygon", "coordinates": [ [ [ 28.7519128, 60.7107988 ], [ 28.7519243, 60.7107283 ], [ 28.7517574, 60.7107218 ], [ 28.7517459, 60.7107927 ], [ 28.7518139, 60.7107952 ], [ 28.7519128, 60.7107988 ] ] ] } },
{ "type": "Feature", "properties": { "element": "way", "id": 469365523, "amenity": "cafe", "name": "Хлебник", "phone": null, "opening_hours": null, "cuisine": null, "level": "1" }, "geometry": { "type": "Polygon", "coordinates": [ [ [ 28.7514531, 60.7107821 ], [ 28.7514645, 60.7107109 ], [ 28.751686, 60.7107194 ], [ 28.7516746, 60.7107902 ], [ 28.7515296, 60.7107849 ], [ 28.7514531, 60.7107821 ] ] ] } },
{ "type": "Feature", "properties": { "element": "way", "id": 480930671, "amenity": "cafe", "name": "Папарацци", "phone": "+7 81378 20520", "opening_hours": "08:00-22:00", "cuisine": null, "level": "1" }, "geometry": { "type": "Polygon", "coordinates": [ [ [ 28.7480092, 60.7114047 ], [ 28.7481228, 60.7113632 ], [ 28.7479794, 60.711271 ], [ 28.747866, 60.7113129 ], [ 28.7479684, 60.7113786 ], [ 28.7480092, 60.7114047 ] ] ] } },
{ "type": "Feature", "properties": { "element": "way", "id": 484177007, "amenity": "cafe", "name": "Крендель", "phone": "+7 81378 46014", "opening_hours": "10:00-20:00", "cuisine": null, "level": "1" }, "geometry": { "type": "Polygon", "coordinates": [ [ [ 28.7304637, 60.7144941 ], [ 28.7305778, 60.7144403 ], [ 28.7304954, 60.7143965 ], [ 28.730437, 60.7144231 ], [ 28.7303773, 60.7144504 ], [ 28.7304637, 60.7144941 ] ] ] } },
{ "type": "Feature", "properties": { "element": "way", "id": 484177010, "amenity": "cafe", "name": "У Кнутссона", "phone": null, "opening_hours": "10:00-20:00", "cuisine": null, "level": "1" }, "geometry": { "type": "Polygon", "coordinates": [ [ [ 28.7299368, 60.7139938 ], [ 28.7299146, 60.714002 ], [ 28.7298932, 60.7139872 ], [ 28.7298821, 60.7139796 ], [ 28.7298375, 60.713949 ], [ 28.7299571, 60.7139053 ], [ 28.7300367, 60.7139572 ], [ 28.7299368, 60.7139938 ] ] ] } },
{ "type": "Feature", "properties": { "element": "way", "id": 484177018, "amenity": "cafe", "name": "Торгильс", "phone": null, "opening_hours": "10:00-18:00", "cuisine": null, "level": "1" }, "geometry": { "type": "Polygon", "coordinates": [ [ [ 28.7308079, 60.7138623 ], [ 28.7308875, 60.7139159 ], [ 28.7309968, 60.7138747 ], [ 28.7309174, 60.7138208 ], [ 28.7308651, 60.7138406 ], [ 28.7308079, 60.7138623 ] ] ] } },
{ "type": "Feature", "properties": { "element": "way", "id": 484177040, "amenity": "cafe", "name": "Крепостная, 5", "phone": null, "opening_hours": "Mo-Fr 11:00-19:00; Sa 11:00-21:00; Su 11:00-20:00", "cuisine": null, "level": "0" }, "geometry": { "type": "Polygon", "coordinates": [ [ [ 28.7320303, 60.7132981 ], [ 28.7320458, 60.7132923 ], [ 28.7321312, 60.7132606 ], [ 28.7320452, 60.7132021 ], [ 28.7319456, 60.7132389 ], [ 28.7320303, 60.7132981 ] ] ] } },
{ "type": "Feature", "properties": { "element": "way", "id": 484177058, "amenity": "cafe", "name": "Вареники", "phone": null, "opening_hours": "12:00-24:00", "cuisine": null, "level": "1" }, "geometry": { "type": "Polygon", "coordinates": [ [ [ 28.7340835, 60.7125176 ], [ 28.7339935, 60.7124593 ], [ 28.7338668, 60.7125065 ], [ 28.7339564, 60.7125655 ], [ 28.7339711, 60.71256 ], [ 28.7340835, 60.7125176 ] ] ] } },
{ "type": "Feature", "properties": { "element": "way", "id": 484177061, "amenity": "cafe", "name": "Старый город", "phone": "+7-81378-24866", "opening_hours": "10:00-23:00", "cuisine": null, "level": "1" }, "geometry": { "type": "Polygon", "coordinates": [ [ [ 28.7346385, 60.7124207 ], [ 28.734724, 60.7124762 ], [ 28.7348939, 60.7124116 ], [ 28.7349165, 60.7124014 ], [ 28.7348886, 60.7123843 ], [ 28.7348283, 60.7123471 ], [ 28.7346385, 60.7124207 ] ] ] } },
{ "type": "Feature", "properties": { "element": "way", "id": 484177067, "amenity": "cafe", "name": "Царь-пышка", "phone": null, "opening_hours": "Mo-Fr 09:00-21:00; Sa,Su 10:00-21:00", "cuisine": null, "level": "1" }, "geometry": { "type": "Polygon", "coordinates": [ [ [ 28.7415589, 60.7125158 ], [ 28.7416415, 60.7125704 ], [ 28.7417676, 60.7125249 ], [ 28.7416863, 60.7124683 ], [ 28.7415986, 60.712501 ], [ 28.7415589, 60.7125158 ] ] ] } },
{ "type": "Feature", "properties": { "element": "way", "id": 484177079, "amenity": "cafe", "name": "Мороженое", "phone": null, "opening_hours": "Mo-Su 10:00-20:00", "cuisine": "ice_cream", "level": "1" }, "geometry": { "type": "Polygon", "coordinates": [ [ [ 28.7440343, 60.7116703 ], [ 28.7439736, 60.7116315 ], [ 28.7439759, 60.7116249 ], [ 28.7439784, 60.7116181 ], [ 28.7440547, 60.7115893 ], [ 28.7441256, 60.711637 ], [ 28.7440343, 60.7116703 ] ] ] } },
{ "type": "Feature", "properties": { "element": "way", "id": 550292830, "amenity": "cafe", "name": "Бэст", "phone": "+7 81378 24606; +7 921 3889957", "opening_hours": "10:00-24:00", "cuisine": "regional", "level": "0" }, "geometry": { "type": "Polygon", "coordinates": [ [ [ 28.7514872, 60.7143254 ], [ 28.7516338, 60.7143321 ], [ 28.7516539, 60.7142265 ], [ 28.7515395, 60.7142215 ], [ 28.7515044, 60.7142199 ], [ 28.7514872, 60.7143254 ] ] ] } },
{ "type": "Feature", "properties": { "element": "way", "id": 584218230, "amenity": "cafe", "name": "Пинар", "phone": "+7 921 7577990; +7 911 1236386", "opening_hours": "Mo-Sa 09:00-18:00", "cuisine": null, "level": "1" }, "geometry": { "type": "Polygon", "coordinates": [ [ [ 28.7482009, 60.7051813 ], [ 28.7481301, 60.7051321 ], [ 28.7483581, 60.7050507 ], [ 28.7484291, 60.7050992 ], [ 28.7482098, 60.7051781 ], [ 28.7482009, 60.7051813 ] ] ] } },
{ "type": "Feature", "properties": { "element": "way", "id": 760055984, "amenity": "cafe", "name": "Афина", "phone": null, "opening_hours": "10:00-21:00", "cuisine": "kebab", "level": "1" }, "geometry": { "type": "Polygon", "coordinates": [ [ [ 28.7654673, 60.6950083 ], [ 28.7653316, 60.6951093 ], [ 28.7652705, 60.6950896 ], [ 28.7653223, 60.6950511 ], [ 28.7654061, 60.6949886 ], [ 28.7654673, 60.6950083 ] ] ] } },
{ "type": "Feature", "properties": { "element": "way", "id": 1185389119, "amenity": "cafe", "name": "Выборгский трамвай", "phone": "+7 921 75874444", "opening_hours": "10:00-22:00", "cuisine": "coffee_shop", "level": null }, "geometry": { "type": "Polygon", "coordinates": [ [ [ 28.7369016, 60.7117552 ], [ 28.7368956, 60.7116852 ], [ 28.7369546, 60.711684 ], [ 28.7369606, 60.711754 ], [ 28.7369016, 60.7117552 ] ] ] } }
]
}
